{
  "type": "FeatureCollection",
  "features": [
    {
      "type": "Feature",
      "properties": {
        "norad_id": 34918,
        "name": "COSMOS 2251 DEB",
        "group": "cosmos-2251-debris",
        "lat": -61.68592920829204,
        "lon": 164.54017520538068,
        "alt_km": 676.0927228233177,
        "timestamp": "2025-12-13T07:35:41.900136+00:00",
        "meta_object_name": "COSMOS 2251 DEB",
        "meta_object_id": "1993-036ADP",
        "meta_epoch": "2025-12-10T06:27:09.237024",
        "meta_mean_motion": 14.6111897,
        "meta_eccentricity": 0.0033898,
        "meta_inclination": 74.0712,
        "meta_ra_of_asc_node": 318.3402,
        "meta_arg_of_pericenter": 286.4186,
        "meta_mean_anomaly": 135.6409,
        "meta_ephemeris_type": 0,
        "meta_classification_type": "U",
        "meta_norad_cat_id": 34918,
        "meta_element_set_no": 999,
        "meta_rev_at_epoch": 65300,
        "meta_bstar": 0.0032517,
        "meta_mean_motion_dot": 0.00016131,
        "meta_mean_motion_ddot": 0,
        "tle_line1": "1 34918U 93036ADP 25344.26885691  .00016131  00000+0  32517-2 0  9990",
        "tle_line2": "2 34918  74.0712 318.3402 0033898 286.4186 135.6409 14.61118970653005"
      },
      "geometry": {
        "type": "Point",
        "coordinates": [
          164.54017520538068,
          -61.68592920829204
        ]
      }
    },
    {
      "type": "Feature",
      "properties": {
        "norad_id": 34924,
        "name": "COSMOS 2251 DEB",
        "group": "cosmos-2251-debris",
        "lat": -57.033332678681376,
        "lon": -65.47009433515542,
        "alt_km": 685.1394666748602,
        "timestamp": "2025-12-13T07:35:41.900145+00:00",
        "meta_object_name": "COSMOS 2251 DEB",
        "meta_object_id": "1993-036ADV",
        "meta_epoch": "2025-12-12T18:03:02.395584",
        "meta_mean_motion": 14.60034807,
        "meta_eccentricity": 0.00543359,
        "meta_inclination": 74.0406,
        "meta_ra_of_asc_node": 89.4243,
        "meta_arg_of_pericenter": 174.0112,
        "meta_mean_anomaly": 341.0581,
        "meta_ephemeris_type": 0,
        "meta_classification_type": "U",
        "meta_norad_cat_id": 34924,
        "meta_element_set_no": 999,
        "meta_rev_at_epoch": 87723,
        "meta_bstar": 0.0015492867,
        "meta_mean_motion_dot": 7.574e-05,
        "meta_mean_motion_ddot": 0,
        "tle_line1": "1 34924U 93036ADV 25346.75211106  .00007574  00000+0  15493-2 0  9992",
        "tle_line2": "2 34924  74.0406  89.4243 0054335 174.0112 341.0581 14.60034807877233"
      },
      "geometry": {
        "type": "Point",
        "coordinates": [
          -65.47009433515542,
          -57.033332678681376
        ]
      }
    },
    {
      "type": "Feature",
      "properties": {
        "norad_id": 34944,
        "name": "COSMOS 2251 DEB",
        "group": "cosmos-2251-debris",
        "lat": -65.11074904719273,
        "lon": 89.95217431526727,
        "alt_km": 1008.9488193923626,
        "timestamp": "2025-12-13T07:35:41.900154+00:00",
        "meta_object_name": "COSMOS 2251 DEB",
        "meta_object_id": "1993-036ADX",
        "meta_epoch": "2025-12-07T09:30:46.029312",
        "meta_mean_motion": 14.14167925,
        "meta_eccentricity": 0.02195348,
        "meta_inclination": 73.7495,
        "meta_ra_of_asc_node": 241.6775,
        "meta_arg_of_pericenter": 90.2413,
        "meta_mean_anomaly": 272.3884,
        "meta_ephemeris_type": 0,
        "meta_classification_type": "U",
        "meta_norad_cat_id": 34944,
        "meta_element_set_no": 999,
        "meta_rev_at_epoch": 64007,
        "meta_bstar": 0.00099492053,
        "meta_mean_motion_dot": 2.364e-05,
        "meta_mean_motion_ddot": 0,
        "tle_line1": "1 34944U 93036ADX 25341.39636608  .00002364  00000+0  99492-3 0  9991",
        "tle_line2": "2 34944  73.7495 241.6775 0219534  90.2413 272.3884 14.14167925640077"
      },
      "geometry": {
        "type": "Point",
        "coordinates": [
          89.95217431526727,
          -65.11074904719273
        ]
      }
    },
    {
      "type": "Feature",
      "properties": {
        "norad_id": 34946,
        "name": "COSMOS 2251 DEB",
        "group": "cosmos-2251-debris",
        "lat": 73.94601751323549,
        "lon": 65.60871961981736,
        "alt_km": 649.3530080999353,
        "timestamp": "2025-12-13T07:35:41.900163+00:00",
        "meta_object_name": "COSMOS 2251 DEB",
        "meta_object_id": "1993-036ADZ",
        "meta_epoch": "2025-12-11T09:12:32.820480",
        "meta_mean_motion": 14.61985522,
        "meta_eccentricity": 0.0048688,
        "meta_inclination": 74.0237,
        "meta_ra_of_asc_node": 344.7115,
        "meta_arg_of_pericenter": 122.3418,
        "meta_mean_anomaly": 238.2476,
        "meta_ephemeris_type": 0,
        "meta_classification_type": "U",
        "meta_norad_cat_id": 34946,
        "meta_element_set_no": 999,
        "meta_rev_at_epoch": 88189,
        "meta_bstar": 0.00095647955,
        "meta_mean_motion_dot": 4.849e-05,
        "meta_mean_motion_ddot": 0,
        "tle_line1": "1 34946U 93036ADZ 25345.38371320  .00004849  00000+0  95648-3 0  9992",
        "tle_line2": "2 34946  74.0237 344.7115 0048688 122.3418 238.2476 14.61985522881890"
      },
      "geometry": {
        "type": "Point",
        "coordinates": [
          65.60871961981736,
          73.94601751323549
        ]
      }
    },
    {
      "type": "Feature",
      "properties": {
        "norad_id": 34949,
        "name": "COSMOS 2251 DEB",
        "group": "cosmos-2251-debris",
        "lat": 11.681603421714964,
        "lon": 111.93026069004806,
        "alt_km": 676.1093395222142,
        "timestamp": "2025-12-13T07:35:41.900172+00:00",
        "meta_object_name": "COSMOS 2251 DEB",
        "meta_object_id": "1993-036AEC",
        "meta_epoch": "2025-12-09T15:34:41.030400",
        "meta_mean_motion": 14.73963573,
        "meta_eccentricity": 0.008042,
        "meta_inclination": 74.0182,
        "meta_ra_of_asc_node": 115.6941,
        "meta_arg_of_pericenter": 261.6413,
        "meta_mean_anomaly": 97.5637,
        "meta_ephemeris_type": 0,
        "meta_classification_type": "U",
        "meta_norad_cat_id": 34949,
        "meta_element_set_no": 999,
        "meta_rev_at_epoch": 88316,
        "meta_bstar": 0.00087029,
        "meta_mean_motion_dot": 5.989e-05,
        "meta_mean_motion_ddot": 0,
        "tle_line1": "1 34949U 93036AEC 25343.64908600  .00005989  00000+0  87029-3 0  9999",
        "tle_line2": "2 34949  74.0182 115.6941 0080420 261.6413  97.5637 14.73963573883168"
      },
      "geometry": {
        "type": "Point",
        "coordinates": [
          111.93026069004806,
          11.681603421714964
        ]
      }
    },
    {
      "type": "Feature",
      "properties": {
        "norad_id": 34953,
        "name": "COSMOS 2251 DEB",
        "group": "cosmos-2251-debris",
        "lat": -23.297739942010942,
        "lon": 19.323520437112364,
        "alt_km": 639.2143426018984,
        "timestamp": "2025-12-13T07:35:41.900181+00:00",
        "meta_object_name": "COSMOS 2251 DEB",
        "meta_object_id": "1993-036AEG",
        "meta_epoch": "2025-12-12T21:04:35.045760",
        "meta_mean_motion": 14.68962301,
        "meta_eccentricity": 0.00580366,
        "meta_inclination": 74.0935,
        "meta_ra_of_asc_node": 27.2223,
        "meta_arg_of_pericenter": 19.2299,
        "meta_mean_anomaly": 160.2962,
        "meta_ephemeris_type": 0,
        "meta_classification_type": "U",
        "meta_norad_cat_id": 34953,
        "meta_element_set_no": 999,
        "meta_rev_at_epoch": 88130,
        "meta_bstar": 0.0011527751,
        "meta_mean_motion_dot": 6.903e-05,
        "meta_mean_motion_ddot": 0,
        "tle_line1": "1 34953U 93036AEG 25346.87818340  .00006903  00000+0  11528-2 0  9990",
        "tle_line2": "2 34953  74.0935  27.2223 0058036  19.2299 160.2962 14.68962301881302"
      },
      "geometry": {
        "type": "Point",
        "coordinates": [
          19.323520437112364,
          -23.297739942010942
        ]
      }
    },
    {
      "type": "Feature",
      "properties": {
        "norad_id": 34955,
        "name": "COSMOS 2251 DEB",
        "group": "cosmos-2251-debris",
        "lat": 4.979635264250738,
        "lon": 63.90443829682809,
        "alt_km": 608.4420691564192,
        "timestamp": "2025-12-13T07:35:41.900189+00:00",
        "meta_object_name": "COSMOS 2251 DEB",
        "meta_object_id": "1993-036AEJ",
        "meta_epoch": "2025-12-11T10:00:38.398176",
        "meta_mean_motion": 15.00495775,
        "meta_eccentricity": 0.00779991,
        "meta_inclination": 74.0375,
        "meta_ra_of_asc_node": 249.1952,
        "meta_arg_of_pericenter": 319.1032,
        "meta_mean_anomaly": 40.4318,
        "meta_ephemeris_type": 0,
        "meta_classification_type": "U",
        "meta_norad_cat_id": 34955,
        "meta_element_set_no": 999,
        "meta_rev_at_epoch": 90014,
        "meta_bstar": 0.0014966224,
        "meta_mean_motion_dot": 0.00020131,
        "meta_mean_motion_ddot": 0,
        "tle_line1": "1 34955U 93036AEJ 25345.41711109  .00020131  00000+0  14966-2 0  9994",
        "tle_line2": "2 34955  74.0375 249.1952 0077999 319.1032  40.4318 15.00495775900143"
      },
      "geometry": {
        "type": "Point",
        "coordinates": [
          63.90443829682809,
          4.979635264250738
        ]
      }
    }
  ]
}